[{"OBJECT_NAME":"COSMO-SKYMED 3","OBJECT_ID":"2008-054A","EPOCH":"2026-03-09T22:03:15.183936","MEAN_MOTION":15.06259488,"ECCENTRICITY":0.00143526,"INCLINATION":97.8419,"RA_OF_ASC_NODE":285.8111,"ARG_OF_PERICENTER":240.3641,"MEAN_ANOMALY":119.6157,"EPHEMERIS_TYPE":0,"CLASSIFICATION_TYPE":"U","NORAD_CAT_ID":33412,"ELEMENT_SET_NO":999,"REV_AT_EPOCH":94199,"BSTAR":0.00061875413,"MEAN_MOTION_DOT":9.042e-5,"MEAN_MOTION_DDOT":0},{"OBJECT_NAME":"STARLINK-6361","OBJECT_ID":"2023-099BD","EPOCH":"2026-03-09T12:19:15.656160","MEAN_MOTION":15.02539672,"ECCENTRICITY":0.00011177,"INCLINATION":42.998,"RA_OF_ASC_NODE":236.5858,"ARG_OF_PERICENTER":267.5165,"MEAN_ANOMALY":92.5549,"EPHEMERIS_TYPE":0,"CLASSIFICATION_TYPE":"U","NORAD_CAT_ID":57379,"ELEMENT_SET_NO":999,"REV_AT_EPOCH":14624,"BSTAR":-1.063633e-5,"MEAN_MOTION_DOT":-3.47e-6,"MEAN_MOTION_DDOT":0}]
